{"fetched_at":"2026-04-20T13:26:37Z","count":2606,"tles":[{"name":"SPACEMOBILE-007","line1":"1 68765U 26085A   26109.48477177  .00000000  00000+0  00000+0 0  9994","line2":"2 68765  36.1050 170.3509 0253100 160.1450 346.9830 15.82286134    05","category":"Other"}]}