{
  "norad_id": 68765,
  "name": "SPACEMOBILE-007",
  "history": [
    {
      "epoch": "2026-04-19T11:38:04.280928Z",
      "apogee_km": 493.60775476760773,
      "perigee_km": 154.3467317732584,
      "latitude_deg": 19.078492375744116,
      "longitude_deg": -59.884485691890475,
      "height_km": 157.45894713260276,
      "semi_major_axis_km": 6702.114243270433,
      "eccentricity": 0.02531,
      "inclination_deg": 36.105,
      "raan_deg": 170.3509,
      "arg_perigee_deg": 160.145,
      "mean_anomaly_deg": 346.983,
      "mean_motion_rev_day": 15.82286134
    }
  ]
}